1 45144U 20008P   23349.61751471  .00000309  00000-0  84981-3 0  9996
2 45144  87.8921 217.8958 0001395  70.6952 289.4326 13.10377470188590
1 45144U 20008P   23349.69387188  .00000302  00000-0  82912-3 0  9999
2 45144  87.8921 217.8808 0001400  71.0352 289.0927 13.10377420188600
1 45144U 20008P   23350.15200482 -.00006238  00000-0 -17908-1 0  9990
2 45144  87.8919 217.7901 0001243  62.2798 297.8455 13.10409182189527
1 45144U 20008P   23350.61015718 -.00000931  00000-0 -27040-2 0  9990
2 45144  87.8918 217.6994 0001927  57.5576 302.5737 13.10383282188727
1 45144U 20008P   23350.68650442 -.00013116  00000-0 -37622-1 0  9991
2 45144  87.8918 217.6843 0001430  47.8854 312.2395 13.10445350188734
1 45144U 20008P   23351.14465680  .00000017  00000-0  13010-4 0  9993
2 45144  87.8919 217.5935 0001386  71.3402 288.7876 13.10377714189658
1 45144U 20008P   23351.60279872 -.00000334  00000-0 -99305-3 0  9994
2 45144  87.8918 217.5023 0001543  75.4579 284.6719 13.10379698188855
1 45144U 20008P   23351.67915766  .00001353  00000-0  38399-2 0  9995
2 45144  87.8913 217.4872 0001547  64.0373 296.0914 13.10370114188860
1 45144U 20008P   23352.59544199 -.00000275  00000-0 -82310-3 0  9992
2 45144  87.8918 217.3069 0001431  60.9562 299.1709 13.10377479188989
1 45144U 20008P   23352.67179852 -.00000210  00000-0 -63701-3 0  9993
2 45144  87.8919 217.2915 0001456  71.0797 289.0488 13.10377635189852
1 45144U 20008P   23353.58807812 -.00006335  00000-0 -18187-1 0  9998
2 45144  87.8920 217.1098 0002122  51.9345 308.1973 13.10406286189118
1 45144U 20008P   23354.12258583 -.00000597  00000-0 -17466-2 0  9998
2 45144  87.8917 217.0039 0001373  68.1389 291.9884 13.10375936190044
1 45144U 20008P   23354.58072962 -.00000685  00000-0 -19987-2 0  9991
2 45144  87.8915 216.9131 0001366  68.6129 291.5144 13.10375565189245
1 45144U 20008P   23354.65708702 -.00000687  00000-0 -20049-2 0  9990
2 45144  87.8915 216.8981 0001365  68.5596 291.5676 13.10375347189252
1 45144U 20008P   23355.57337295 -.00001144  00000-0 -33145-2 0  9997
2 45144  87.8911 216.7123 0001644  75.8945 284.2365 13.10379584189378
1 45144U 20008P   23355.64974394 -.00002048  00000-0 -59046-2 0  9994
2 45144  87.8910 216.7010 0001685  55.2179 304.9106 13.10363328189381
1 45144U 20008P   23355.64974394 -.00002048  00000-0 -59046-2 0  9994
2 45144  87.8910 216.7010 0001685  55.2179 304.9106 13.10363328190248
1 45144U 20008P   23356.10788130 -.00000866  00000-0 -25184-2 0  9999
2 45144  87.8913 216.6129 0001632  82.1731 277.9582 13.10369690190308
1 45144U 20008P   23356.56602163 -.00000315  00000-0 -93974-3 0  9992
2 45144  87.8909 216.5186 0001244  70.4751 289.6510 13.10372931189509
1 45144U 20008P   23356.64237999 -.00000595  00000-0 -17409-2 0  9990
2 45144  87.8905 216.5042 0001282  75.6244 284.5025 13.10372774189513
1 45144U 20008P   23357.17688479 -.00000409  00000-0 -12085-2 0  9991
2 45144  87.8902 216.3988 0001640  67.5960 292.5340 13.10371864190442
1 45144U 20008P   23357.55867117 -.00001459  00000-0 -42163-2 0  9997
2 45144  87.8901 216.3232 0001710  69.7919 290.3392 13.10377363189631
1 45144U 20008P   23357.63502604 -.00005176  00000-0 -14866-1 0  9991
2 45144  87.8901 216.3082 0001613  69.6472 290.4829 13.10397030189649
1 45144U 20008P   23357.63502604 -.00005176  00000-0 -14866-1 0  9991
2 45144  87.8901 216.3082 0001613  69.6472 290.4829 13.10397030190506
1 45144U 20008P   23358.16953187 -.00000448  00000-0 -13191-2 0  9994
2 45144  87.8898 216.2021 0001287  81.1809 278.9464 13.10371909190573
1 45144U 20008P   23358.62767919 -.00001326  00000-0 -38357-2 0  9998
2 45144  87.8897 216.1112 0001496  77.3021 282.8273 13.10374202189778
1 45144U 20008P   23359.16218380  .00004782  00000-0  13661-1 0  9998
2 45144  87.8895 216.0050 0001271  93.7468 266.3805 13.10347334190703
1 45144U 20008P   23359.62032742 -.00000098  00000-0 -31626-3 0  9996
2 45144  87.8896 215.9142 0001297  83.7892 276.3383 13.10371772189907
1 45144U 20008P   23359.69668545 -.00000093  00000-0 -30389-3 0  9999
2 45144  87.8895 215.8990 0001288  83.3216 276.8058 13.10371338189915
1 45144U 20008P   23359.69668545 -.00000093  00000-0 -30389-3 0  9999
2 45144  87.8895 215.8990 0001288  83.3216 276.8058 13.10371338190771
1 45144U 20008P   23360.61297451 -.00002800  00000-0 -80570-2 0  9991
2 45144  87.8897 215.7173 0001460  67.6007 292.5275 13.10385282190038
1 45144U 20008P   23360.68934640  .00013701  00000-0  39195-1 0  9992
2 45144  87.8897 215.7023 0002073  80.8441 279.2921 13.10302390190042
1 45144U 20008P   23360.68934640  .00013701  00000-0  39195-1 0  9992
2 45144  87.8897 215.7023 0002073  80.8441 279.2921 13.10302390190907
1 45144U 20008P   23361.14748170  .00000245  00000-0  66616-3 0  9994
2 45144  87.8897 215.6115 0001270  79.8699 280.2572 13.10371934190969
1 45144U 20008P   23361.60562795  .00000345  00000-0  95208-3 0  9992
2 45144  87.8896 215.5208 0001268  78.4744 281.6525 13.10371919190161
1 45144U 20008P   23362.59827758  .00000478  00000-0  13322-2 0  9997
2 45144  87.8898 215.3239 0001247  77.6223 282.5044 13.10372419190291
1 45144U 20008P   23362.67463568  .00000423  00000-0  11753-2 0  9997
2 45144  87.8896 215.3090 0001237  77.1259 283.0006 13.10372086190303
1 45144U 20008P   23362.67463568  .00000423  00000-0  11753-2 0  9997
2 45144  87.8896 215.3090 0001237  77.1259 283.0006 13.10372086191168
1 45144U 20008P   23363.59092573  .00000602  00000-0  16885-2 0  9993
2 45144  87.8896 215.1278 0001243  79.1010 281.0257 13.10373736190425
1 45144U 20008P   23364.12542833  .00000568  00000-0  15903-2 0  9993
2 45144  87.8895 215.0217 0001261  81.4251 278.7019 13.10374554191350
1 45144U 20008P   23364.58357318  .00000655  00000-0  18399-2 0  9994
2 45144  87.8895 214.9310 0001251  82.4204 277.7066 13.10374450190557
1 45144U 20008P   23364.65993031  .00000735  00000-0  20683-2 0  9998
2 45144  87.8896 214.9158 0001258  82.1506 277.9764 13.10374608190560
